FORMOSAT 7-3            
1 44343U 19036E   26068.82630502  .00006445  00000+0  37650-3 0  9997
2 44343  23.9981 141.9797 0001061 150.4425 209.6139 15.08933962368215
STARLINK-3661           
1 52129U 22029AT  26068.28136667 -.00000357  00000+0 -43574-5 0  9999
2 52129  53.2179  70.9538 0001430  93.3020 266.8136 15.08838204220875
