[{"OBJECT_NAME":"FORMOSAT 7-3","OBJECT_ID":"2019-036E","EPOCH":"2026-03-09T19:49:52.754592","MEAN_MOTION":15.08933962,"ECCENTRICITY":0.00010606,"INCLINATION":23.9981,"RA_OF_ASC_NODE":141.9797,"ARG_OF_PERICENTER":150.4425,"MEAN_ANOMALY":209.6139,"EPHEMERIS_TYPE":0,"CLASSIFICATION_TYPE":"U","NORAD_CAT_ID":44343,"ELEMENT_SET_NO":999,"REV_AT_EPOCH":36821,"BSTAR":0.00037650049,"MEAN_MOTION_DOT":6.445e-5,"MEAN_MOTION_DDOT":0},{"OBJECT_NAME":"STARLINK-3661","OBJECT_ID":"2022-029AT","EPOCH":"2026-03-09T06:45:10.080288","MEAN_MOTION":15.08838204,"ECCENTRICITY":0.00014301,"INCLINATION":53.2179,"RA_OF_ASC_NODE":70.9538,"ARG_OF_PERICENTER":93.302,"MEAN_ANOMALY":266.8136,"EPHEMERIS_TYPE":0,"CLASSIFICATION_TYPE":"U","NORAD_CAT_ID":52129,"ELEMENT_SET_NO":999,"REV_AT_EPOCH":22087,"BSTAR":-4.357367e-6,"MEAN_MOTION_DOT":-3.57e-6,"MEAN_MOTION_DDOT":0}]
